NORAD_CAT_ID,OBJECT_NAME,OBJECT_TYPE,EPOCH,MEAN_MOTION,ECCENTRICITY,INCLINATION,RA_OF_ASC_NODE,ARG_OF_PERICENTER,MEAN_ANOMALY,BSTAR,MEAN_MOTION_DOT,MEAN_MOTION_DDOT,TLE_LINE0,TLE_LINE1,TLE_LINE2,SEMIMAJOR_AXIS,PERIOD,APOGEE,PERIGEE,DECAYED
54783.0,STARLINK-5439,PAYLOAD,2023-05-08 22:04:14,15.08786501,0.0001375,53.2185,358.8546,119.3307,240.7823,0.0008402,0.0001309,0.0,0 STARLINK-5439,1 54783U 22175AB  23128.91961106  .00013090  00000-0  84020-3 0  9993,2 54783  53.2185 358.8546 0001375 119.3307 240.7823 15.08786501 23767,6918.044,95.441,540.86,538.958,0.0
54783.0,STARLINK-5439,PAYLOAD,2023-05-09 21:55:00,15.08843172,0.0001146,53.2179,354.3983,98.3779,261.7343,5.3769e-05,5.68e-06,0.0,0 STARLINK-5439,1 54783U 22175AB  23129.91320327  .00000568  00000-0  53769-4 0  9991,2 54783  53.2179 354.3983 0001146  98.3779 261.7343 15.08843172 23916,6917.871,95.437,540.528,538.943,0.0
54783.0,STARLINK-5439,PAYLOAD,2023-05-10 21:45:48,15.08842272,0.00012,53.2179,349.94,109.8373,250.2748,-1.8557e-05,-5.83e-06,0.0,0 STARLINK-5439,1 54783U 22175AB  23130.90680682 -.00000583  00000-0 -18557-4 0  9990,2 54783  53.2179 349.9400 0001200 109.8373 250.2748 15.08842272 24068,6917.873,95.437,540.569,538.908,0.0
54783.0,STARLINK-5439,PAYLOAD,2023-05-10 23:21:10,15.08846927,0.0001082,53.2175,349.6394,99.3156,260.7959,4.3793e-06,-2.18e-06,0.0,0 STARLINK-5439,1 54783U 22175AB  23130.97304288 -.00000218  00000-0  43793-5 0  9997,2 54783  53.2175 349.6394 0001082  99.3156 260.7959 15.08846927 21915,6917.859,95.437,540.473,538.976,0.0
54783.0,STARLINK-5439,PAYLOAD,2023-05-11 21:36:35,15.08838959,0.000104,53.2187,345.4751,97.7352,262.3758,-3.8201e-05,-8.96e-06,0.0,0 STARLINK-5439,1 54783U 22175AB  23131.90041162 -.00000896  00000-0 -38201-4 0  9990,2 54783  53.2187 345.4751 0001040  97.7352 262.3758 15.08838959 22050,6917.884,95.438,540.468,539.029,0.0
54783.0,STARLINK-5439,PAYLOAD,2023-05-12 18:16:36,15.08846635,0.0001017,53.2187,341.6094,94.2693,265.8415,-4.8786e-05,-1.064e-05,0.0,0 STARLINK-5439,1 54783U 22175AB  23132.76153069 -.00001064  00000-0 -48786-4 0  9992,2 54783  53.2187 341.6094 0001017  94.2693 265.8415 15.08846635 24344,6917.86,95.437,540.429,539.022,0.0
54783.0,STARLINK-5439,PAYLOAD,2023-05-12 21:27:22,15.08847932,0.0001138,53.2191,341.0127,78.9552,281.1568,2.322e-05,8.2e-07,0.0,0 STARLINK-5439,1 54783U 22175AB  23132.89400771  .00000082  00000-0  23220-4 0  9994,2 54783  53.2191 341.0127 0001138  78.9552 281.1568 15.08847932 22201,6917.856,95.437,540.508,538.934,0.0
54783.0,STARLINK-5439,PAYLOAD,2023-05-13 19:42:46,15.08839701,0.000151,53.2191,336.8474,56.176,303.9376,7.6838e-05,9.35e-06,0.0,0 STARLINK-5439,1 54783U 22175AB  23133.82137256  .00000935  00000-0  76838-4 0  9993,2 54783  53.2191 336.8474 0001510  56.1760 303.9376 15.08839701 22341,6917.881,95.438,540.791,538.702,0.0
54783.0,STARLINK-5439,PAYLOAD,2023-05-13 21:18:09,15.08841935,0.0001529,53.2195,336.5517,59.1828,300.9314,9.5583e-05,1.234e-05,0.0,0 STARLINK-5439,1 54783U 22175AB  23133.88761079  .00001234  00000-0  95583-4 0  9996,2 54783  53.2195 336.5517 0001529  59.1828 300.9314 15.08841935 24510,6917.874,95.437,540.797,538.682,0.0
54783.0,STARLINK-5439,PAYLOAD,2023-05-14 00:28:55,15.0884724,0.0001314,53.2192,335.959,69.6371,290.4762,0.00013421,1.849e-05,0.0,0 STARLINK-5439,1 54783U 22175AB  23134.02008552  .00001849  00000-0  13421-3 0  9995,2 54783  53.2192 335.9590 0001314  69.6371 290.4762 15.08847240 22379,6917.858,95.437,540.632,538.814,0.0
54783.0,STARLINK-5439,PAYLOAD,2023-05-14 13:12:01,15.08843642,0.0001613,53.2187,333.5841,70.7923,289.3244,-9.4309e-06,-4.38e-06,0.0,0 STARLINK-5439,1 54783U 22175AB  23134.55001324 -.00000438  00000-0 -94309-5 0  9994,2 54783  53.2187 333.5841 0001613  70.7923 289.3244 15.08843642 24617,6917.869,95.437,540.85,538.618,0.0
54783.0,STARLINK-5439,PAYLOAD,2023-05-14 19:33:33,15.08842076,0.0001274,53.2185,332.3912,83.9633,276.1504,8.8965e-06,-1.46e-06,0.0,0 STARLINK-5439,1 54783U 22175AB  23134.81497180 -.00000146  00000-0  88965-5 0  9998,2 54783  53.2185 332.3912 0001274  83.9633 276.1504 15.08842076 22495,6917.874,95.437,540.62,538.858,0.0
54783.0,STARLINK-5439,PAYLOAD,2023-05-15 06:41:15,15.08836182,0.0001119,53.2179,330.3092,83.7072,276.4048,-8.1197e-06,-4.17e-06,0.0,0 STARLINK-5439,1 54783U 22175AB  23135.27865571 -.00000417  00000-0 -81197-5 0  9994,2 54783  53.2179 330.3092 0001119  83.7072 276.4048 15.08836182 22563,6917.892,95.438,540.531,538.983,0.0
54783.0,STARLINK-5439,PAYLOAD,2023-05-15 19:24:21,15.08837411,0.000105,53.2174,327.9321,83.235,276.8762,-5.0769e-05,-1.096e-05,0.0,0 STARLINK-5439,1 54783U 22175AB  23135.80857754 -.00001096  00000-0 -50769-4 0  9991,2 54783  53.2174 327.9321 0001050  83.2350 276.8762 15.08837411 24805,6917.888,95.438,540.48,539.027,0.0
54783.0,STARLINK-5439,PAYLOAD,2023-05-16 12:53:35,15.08837956,0.0001101,53.2168,324.6602,82.382,277.7297,7.1338e-05,8.48e-06,0.0,0 STARLINK-5439,1 54783U 22175AB  23136.53721377  .00000848  00000-0  71338-4 0  9990,2 54783  53.2168 324.6602 0001101  82.3820 277.7297 15.08837956 24912,6917.887,95.438,540.513,538.99,0.0
54783.0,STARLINK-5439,PAYLOAD,2023-05-16 19:15:07,15.08842227,0.0001076,53.2169,323.4708,79.757,280.3544,6.9895e-05,8.25e-06,0.0,0 STARLINK-5439,1 54783U 22175AB  23136.80217114  .00000825  00000-0  69895-4 0  9999,2 54783  53.2169 323.4708 0001076  79.7570 280.3544 15.08842227 24956,6917.874,95.437,540.483,538.994,0.0
54783.0,STARLINK-5439,PAYLOAD,2023-05-17 03:12:04,15.0883216,0.0001164,53.2169,321.987,72.5873,287.5246,-6.1658e-05,-1.269e-05,0.0,0 STARLINK-5439,1 54783U 22175AB  23137.13338129 -.00001269  00000-0 -61658-4 0  9990,2 54783  53.2169 321.9870 0001164  72.5873 287.5246 15.08832160 22843,6917.904,95.438,540.575,538.964,0.0
54783.0,STARLINK-5439,PAYLOAD,2023-05-17 17:30:32,15.08835109,0.0001093,53.2175,319.3065,82.9652,277.1465,8.9306e-05,1.134e-05,0.0,0 STARLINK-5439,1 54783U 22175AB  23137.72953743  .00001134  00000-0  89306-4 0  9999,2 54783  53.2175 319.3065 0001093  82.9652 277.1465 15.08835109 22932,6917.895,95.438,540.516,539.004,0.0
54783.0,STARLINK-5439,PAYLOAD,2023-05-17 20:41:18,15.08841135,0.000105,53.2181,318.7121,81.1401,278.971,9.1608e-05,1.171e-05,0.0,0 STARLINK-5439,1 54783U 22175AB  23137.86201424  .00001171  00000-0  91608-4 0  9995,2 54783  53.2181 318.7121 0001050  81.1401 278.9710 15.08841135 25112,6917.877,95.437,540.468,539.016,0.0
54783.0,STARLINK-5439,PAYLOAD,2023-05-17 23:52:04,15.08843625,0.0001039,53.2179,318.1172,83.0913,277.0198,0.00012864,1.76e-05,0.0,0 STARLINK-5439,1 54783U 22175AB  23137.99449252  .00001760  00000-0  12864-3 0  9992,2 54783  53.2179 318.1172 0001039  83.0913 277.0198 15.08843625 22972,6917.869,95.437,540.453,539.016,0.0
54783.0,STARLINK-5439,PAYLOAD,2023-05-18 12:35:10,15.08835075,8.88e-05,53.218,315.7385,80.6337,279.4756,-1.3243e-05,-4.98e-06,0.0,0 STARLINK-5439,1 54783U 22175AB  23138.52442320 -.00000498  00000-0 -13243-4 0  9993,2 54783  53.2180 315.7385 0000888  80.6337 279.4756 15.08835075 23053,6917.895,95.438,540.375,539.146,0.0
54783.0,STARLINK-5439,PAYLOAD,2023-05-18 18:56:42,15.08841011,9.25e-05,53.2181,314.5496,85.6816,274.4282,3.9286e-05,3.38e-06,0.0,0 STARLINK-5439,1 54783U 22175AB  23138.78937814  .00000338  00000-0  39286-4 0  9994,2 54783  53.2181 314.5496 0000925  85.6816 274.4282 15.08841011 23093,6917.877,95.437,540.382,539.102,0.0
54783.0,STARLINK-5439,PAYLOAD,2023-05-18 22:07:28,15.08842493,8.91e-05,53.2181,313.9541,80.1299,279.9794,5.4251e-05,5.76e-06,0.0,0 STARLINK-5439,1 54783U 22175AB  23138.92185709  .00000576  00000-0  54251-4 0  9991,2 54783  53.2181 313.9541 0000891  80.1299 279.9794 15.08842493 25279,6917.873,95.437,540.354,539.121,0.0
54783.0,STARLINK-5439,PAYLOAD,2023-05-19 14:01:20,15.08835129,9.74e-05,53.218,310.9805,92.4242,267.6862,0.00010596,1.399e-05,0.0,0 STARLINK-5439,1 54783U 22175AB  23139.58426269  .00001399  00000-0  10596-3 0  9990,2 54783  53.2180 310.9805 0000974  92.4242 267.6862 15.08835129 23214,6917.895,95.438,540.434,539.086,0.0
54783.0,STARLINK-5439,PAYLOAD,2023-05-20 10:41:20,15.08843461,9.63e-05,53.2169,307.1145,88.7858,271.3245,9.6689e-05,1.252e-05,0.0,0 STARLINK-5439,1 54783U 22175AB  23140.44537655  .00001252  00000-0  96689-4 0  9995,2 54783  53.2169 307.1145 0000963  88.7858 271.3245 15.08843461 23344,6917.87,95.437,540.401,539.069,0.0
54783.0,STARLINK-5439,PAYLOAD,2023-05-20 18:38:15,15.08855253,0.0001061,53.2167,305.6281,88.723,271.3883,0.00028163,4.199e-05,0.0,0 STARLINK-5439,1 54783U 22175AB  23140.77657102  .00004199  00000-0  28163-3 0  9995,2 54783  53.2167 305.6281 0001061  88.7230 271.3883 15.08855253 25555,6917.834,95.437,540.433,538.965,0.0
54783.0,STARLINK-5439,PAYLOAD,2023-05-21 10:32:08,15.08835815,0.0001413,53.2161,302.6555,74.5169,285.5979,2.7669e-05,1.52e-06,0.0,0 STARLINK-5439,1 54783U 22175AB  23141.43898160  .00000152  00000-0  27669-4 0  9996,2 54783  53.2161 302.6555 0001413  74.5169 285.5979 15.08835815 23491,6917.893,95.438,540.736,538.781,0.0
54783.0,STARLINK-5439,PAYLOAD,2023-05-21 16:53:40,15.08829893,9.52e-05,53.2164,301.4657,71.5874,288.5221,-7.5777e-05,-1.493e-05,0.0,0 STARLINK-5439,1 54783U 22175AB  23141.70394444 -.00001493  00000-0 -75777-4 0  9996,2 54783  53.2164 301.4657 0000952  71.5874 288.5221 15.08829893 25697,6917.911,95.438,540.435,539.118,0.0
54783.0,STARLINK-5439,PAYLOAD,2023-05-22 04:01:22,15.08843592,0.0001053,53.2165,299.3836,70.896,289.2146,0.00036174,5.474e-05,0.0,0 STARLINK-5439,1 54783U 22175AB  23142.16762291  .00005474  00000-0  36174-3 0  9994,2 54783  53.2165 299.3836 0001053  70.8960 289.2146 15.08843592 25767,6917.869,95.437,540.463,539.006,0.0
54783.0,STARLINK-5439,PAYLOAD,2023-05-22 16:44:27,15.08855999,0.0001056,53.2166,297.0047,63.0625,297.0475,0.00091804,0.00014359,0.0,0 STARLINK-5439,1 54783U 22175AB  23142.69754127  .00014359  00000-0  91804-3 0  9994,2 54783  53.2166 297.0047 0001056  63.0625 297.0475 15.08855999 23687,6917.831,95.437,540.427,538.966,0.0
